NORAD_CAT_ID,OBJECT_NAME,OBJECT_TYPE,EPOCH,MEAN_MOTION,ECCENTRICITY,INCLINATION,RA_OF_ASC_NODE,ARG_OF_PERICENTER,MEAN_ANOMALY,BSTAR,MEAN_MOTION_DOT,MEAN_MOTION_DDOT,TLE_LINE0,TLE_LINE1,TLE_LINE2,SEMIMAJOR_AXIS,PERIOD,APOGEE,PERIGEE,DECAYED
52553.0,STARLINK-3858,PAYLOAD,2022-09-25 15:46:35,15.0884119,0.0001985,53.2198,30.1064,42.002,318.1124,0.00012244,1.661e-05,0.0,0 STARLINK-3858,1 52553U 22051W   22268.65735654  .00001661  00000-0  12244-3 0  9991,2 52553  53.2198  30.1064 0001985  42.0020 318.1124 15.08841190 21072,6917.877,95.437,541.115,538.369,0.0
52553.0,STARLINK-3858,PAYLOAD,2022-09-26 09:15:50,15.08834611,0.0001729,53.2202,26.8349,47.1554,312.9583,0.00013672,1.888e-05,0.0,0 STARLINK-3858,1 52553U 22051W   22269.38599841  .00001888  00000-0  13672-3 0  9995,2 52553  53.2202  26.8349 0001729  47.1554 312.9583 15.08834611 21251,6917.897,95.438,540.9580000000002,538.566,0.0
52553.0,STARLINK-3858,PAYLOAD,2022-09-26 10:51:13,15.08835263,0.0001736,53.2201,26.5375,48.6544,311.4597,0.0001388,1.921e-05,0.0,0 STARLINK-3858,1 52553U 22051W   22269.45223817  .00001921  00000-0  13880-3 0  9999,2 52553  53.2201  26.5375 0001736  48.6544 311.4597 15.08835263 21195,6917.895,95.438,540.961,538.559,0.0
52553.0,STARLINK-3858,PAYLOAD,2022-09-27 04:20:27,15.08852972,0.0001664,53.2203,23.2667,48.3219,311.7915,2.4682e-05,1.05e-06,0.0,0 STARLINK-3858,1 52553U 22051W   22270.18087116  .00000105  00000-0  24682-4 0  9997,2 52553  53.2203  23.2667 0001664  48.3219 311.7915 15.08852972 21374,6917.840999999999,95.437,540.857,538.555,0.0
52553.0,STARLINK-3858,PAYLOAD,2022-09-27 13:52:46,15.08848341,0.0001743,53.2202,21.4827,48.6757,311.4385,-6.846799999999999e-06,-3.97e-06,0.0,0 STARLINK-3858,1 52553U 22051W   22270.57831257 -.00000397  00000-0 -68468-5 0  9999,2 52553  53.2202  21.4827 0001743  48.6757 311.4385 15.08848341 21361,6917.855,95.437,540.9259999999998,538.514,0.0
52553.0,STARLINK-3858,PAYLOAD,2022-09-28 13:43:32,15.08852808,0.0001926,53.2199,17.0228,49.705,310.411,0.00017111,2.437e-05,0.0,0 STARLINK-3858,1 52553U 22051W   22271.57189984  .00002437  00000-0  17111-3 0  9995,2 52553  53.2199  17.0228 0001926  49.7050 310.4110 15.08852808 21585,6917.840999999999,95.437,541.039,538.374,0.0
52553.0,STARLINK-3858,PAYLOAD,2022-09-28 16:54:18,15.08854234,0.0001945,53.2198,16.4283,49.7598,310.3564,0.00017158,2.445e-05,0.0,0 STARLINK-3858,1 52553U 22051W   22271.70437835  .00002445  00000-0  17158-3 0  9991,2 52553  53.2198  16.4283 0001945  49.7598 310.3564 15.08854234 21538,6917.837,95.437,541.047,538.356,0.0
52553.0,STARLINK-3858,PAYLOAD,2022-09-29 11:58:57,15.08822377,0.0001988,53.2193,12.8606,41.8143,318.3001,-0.00020885,-3.609e-05,0.0,0 STARLINK-3858,1 52553U 22051W   22272.49927885 -.00003609  00000-0 -20885-3 0  9993,2 52553  53.2193  12.8606 0001988  41.8143 318.3001 15.08822377 21658,6917.934,95.439,541.175,538.424,0.0
52553.0,STARLINK-3858,PAYLOAD,2022-09-30 13:25:07,15.08838682,0.000197,53.2192,8.1033,38.0597,322.0534,0.0002372,3.489e-05,0.0,0 STARLINK-3858,1 52553U 22051W   22273.55911833  .00003489  00000-0  23720-3 0  9992,2 52553  53.2192   8.1033 0001970  38.0597 322.0534 15.08838682 21885,6917.884,95.438,541.112,538.387,0.0
52553.0,STARLINK-3858,PAYLOAD,2022-09-30 16:35:54,15.08836809,0.000188,53.2196,7.5087,31.9936,328.117,0.00022533,3.3e-05,0.0,0 STARLINK-3858,1 52553U 22051W   22273.69159915  .00003300  00000-0  22533-3 0  9995,2 52553  53.2196   7.5087 0001880  31.9936 328.1170 15.08836809 21837,6917.89,95.438,541.056,538.455,0.0
52553.0,STARLINK-3858,PAYLOAD,2022-10-01 13:15:55,15.08831325,0.0001899999999999,53.22,3.6429,46.6119,313.5031,8.8416e-05,1.119e-05,0.0,0 STARLINK-3858,1 52553U 22051W   22274.55272587  .00001119  00000-0  88416-4 0  9991,2 52553  53.2200   3.6429 0001900  46.6119 313.5031 15.08831325 22034,6917.906999999997,95.438,541.086,538.4580000000002,0.0
52553.0,STARLINK-3858,PAYLOAD,2022-10-01 16:26:41,15.08839258,0.0001978,53.2196,3.0486,44.5892,315.5259,0.00018508,2.659e-05,0.0,0 STARLINK-3858,1 52553U 22051W   22274.68520406  .00002659  00000-0  18508-3 0  9995,2 52553  53.2196   3.0486 0001978  44.5892 315.5259 15.08839258 21985,6917.8830000000025,95.438,541.116,538.379,0.0
52553.0,STARLINK-3858,PAYLOAD,2022-10-02 11:31:19,15.08833586,0.000184,53.2201,359.4807,51.1436,308.972,0.00014772,2.063e-05,0.0,0 STARLINK-3858,1 52553U 22051W   22275.48008696  .00002063  00000-0  14772-3 0  9994,2 52553  53.2201 359.4807 0001840  51.1436 308.9720 15.08833586 22105,6917.9,95.438,541.038,538.492,0.0
52553.0,STARLINK-3858,PAYLOAD,2022-10-02 16:17:29,15.08840689,0.0001873,53.2194,358.5886,46.8219,313.293,0.0007957,0.00012398,0.0,0 STARLINK-3858,1 52553U 22051W   22275.67880831  .00012398  00000-0  79570-3 0  9993,2 52553  53.2194 358.5886 0001873  46.8219 313.2930 15.08840689 22136,6917.878000000002,95.438,541.039,538.448,0.0
52553.0,STARLINK-3858,PAYLOAD,2022-10-03 11:22:05,15.08871044,0.0001786999999999,53.2196,355.0208,37.4963,322.6153,0.0011914,0.0001874,0.0,0 STARLINK-3858,1 52553U 22051W   22276.47367870  .00018740  00000-0  11914-2 0  9999,2 52553  53.2196 355.0208 0001787  37.4963 322.6153 15.08871044 22257,6917.786,95.436,540.887,538.414,0.0
52553.0,STARLINK-3858,PAYLOAD,2022-10-03 22:29:47,15.0887604,0.0002142,53.2191,352.9389,45.5694,314.5473,0.00095532,0.00014964,0.0,0 STARLINK-3858,1 52553U 22051W   22276.93735223  .00014964  00000-0  95532-3 0  9994,2 52553  53.2191 352.9389 0002142  45.5694 314.5473 15.08876040 22396,6917.77,95.435,541.117,538.153,0.0
52553.0,STARLINK-3858,PAYLOAD,2022-10-04 11:12:51,15.08876034,0.0001982,53.2188,350.5598,38.0896,322.0236,0.00088529,0.00013843,0.0,0 STARLINK-3858,1 52553U 22051W   22277.46726405  .00013843  00000-0  88529-3 0  9998,2 52553  53.2188 350.5598 0001982  38.0896 322.0236 15.08876034 22473,6917.77,95.435,541.006,538.264,0.0
52553.0,STARLINK-3858,PAYLOAD,2022-10-05 04:42:06,15.08849649,0.0002125,53.2201,347.2906,54.5148,305.6042,0.001498,0.0002364,0.0,0 STARLINK-3858,1 52553U 22051W   22278.19591056  .00023640  00000-0  14980-2 0  9996,2 52553  53.2201 347.2906 0002125  54.5148 305.6042 15.08849649 22584,6917.851,95.437,541.186,538.246,0.0
52553.0,STARLINK-3858,PAYLOAD,2022-10-05 11:03:39,15.08838509,0.0002069,53.2187,346.0993,41.6254,318.4896,0.00024608,3.63e-05,0.0,0 STARLINK-3858,1 52553U 22051W   22278.46087162  .00003630  00000-0  24608-3 0  9990,2 52553  53.2187 346.0993 0002069  41.6254 318.4896 15.08838509 22551,6917.885,95.438,541.181,538.319,0.0
52553.0,STARLINK-3858,PAYLOAD,2022-10-06 04:32:54,15.08826019,0.0002103,53.2175,342.8287,38.0136,322.1005,6.0015e-05,6.67e-06,0.0,0 STARLINK-3858,1 52553U 22051W   22279.18952122  .00000667  00000-0  60015-4 0  9997,2 52553  53.2175 342.8287 0002103  38.0136 322.1005 15.08826019 22733,6917.9230000000025,95.438,541.243,538.3330000000002,0.0
52553.0,STARLINK-3858,PAYLOAD,2022-10-06 10:54:27,15.08835184,0.0002138,53.22,341.6402,42.0943,318.0213,0.00019725,2.852e-05,0.0,0 STARLINK-3858,1 52553U 22051W   22279.45448200  .00002852  00000-0  19725-3 0  9993,2 52553  53.2200 341.6402 0002138  42.0943 318.0213 15.08835184 22702,6917.895,95.438,541.239,538.281,0.0
52553.0,STARLINK-3858,PAYLOAD,2022-10-07 04:23:41,15.08846982,0.0002093,53.2197,338.3695,37.2222,322.8915,0.00035039,5.294e-05,0.0,0 STARLINK-3858,1 52553U 22051W   22280.18311778  .00005294  00000-0  35039-3 0  9993,2 52553  53.2197 338.3695 0002093  37.2222 322.8915 15.08846982 22889,6917.859,95.437,541.172,538.276,0.0
52553.0,STARLINK-3858,PAYLOAD,2022-10-07 10:45:13,15.08852011,0.0002139,53.2193,337.1796,31.8934,328.2187,0.00044661,6.829e-05,0.0,0 STARLINK-3858,1 52553U 22051W   22280.44807718  .00006829  00000-0  44661-3 0  9992,2 52553  53.2193 337.1796 0002139  31.8934 328.2187 15.08852011 22853,6917.844,95.437,541.188,538.229,0.0
52553.0,STARLINK-3858,PAYLOAD,2022-10-07 20:17:32,15.0884475,0.0002153,53.219,335.3947,32.8147,327.2979,0.00011994,1.621e-05,0.0,0 STARLINK-3858,1 52553U 22051W   22280.84551737  .00001621  00000-0  11994-3 0  9991,2 52553  53.2190 335.3947 0002153  32.8147 327.2979 15.08844750 22984,6917.866,95.437,541.22,538.241,0.0
52553.0,STARLINK-3858,PAYLOAD,2022-10-08 10:36:01,15.08826171,0.0002032999999999,53.2192,332.718,43.2806,316.8346,-0.00014728,-2.631e-05,0.0,0 STARLINK-3858,1 52553U 22051W   22281.44168459 -.00002631  00000-0 -14728-3 0  9995,2 52553  53.2192 332.7180 0002033  43.2806 316.8346 15.08826171 23004,6917.9230000000025,95.438,541.194,538.381,0.0
52553.0,STARLINK-3858,PAYLOAD,2022-10-08 20:08:20,15.08838162,0.0002065,53.2199,330.9345,34.0391,326.0733,2.9287e-05,1.78e-06,0.0,0 STARLINK-3858,1 52553U 22051W   22281.83912584  .00000178  00000-0  29287-4 0  9993,2 52553  53.2199 330.9345 0002065  34.0391 326.0733 15.08838162 23068,6917.886,95.438,541.18,538.322,0.0
52553.0,STARLINK-3858,PAYLOAD,2022-10-09 04:05:16,15.08835576,0.0001933,53.2206,329.4491,40.1446,319.9689,-0.00013117,-2.375e-05,0.0,0 STARLINK-3858,1 52553U 22051W   22282.17032488 -.00002375  00000-0 -13117-3 0  9994,2 52553  53.2206 329.4491 0001933  40.1446 319.9689 15.08835576 23184,6917.894,95.438,541.096,538.422,0.0
52553.0,STARLINK-3858,PAYLOAD,2022-10-09 10:26:48,15.08840801,0.0001893,53.2204,328.2604,40.3334,319.7798,-1.1983e-06,-3.07e-06,0.0,0 STARLINK-3858,1 52553U 22051W   22282.43528335 -.00000307  00000-0 -11983-5 0  9998,2 52553  53.2204 328.2604 0001893  40.3334 319.7798 15.08840801 23151,6917.878000000002,95.438,541.052,538.433,0.0
52553.0,STARLINK-3858,PAYLOAD,2022-10-09 19:59:06,15.08851742,0.0002204,53.2207,326.4763,40.3997,319.7159,0.00031396,4.714e-05,0.0,0 STARLINK-3858,1 52553U 22051W   22282.83271925  .00004714  00000-0  31396-3 0  9994,2 52553  53.2207 326.4763 0002204  40.3997 319.7159 15.08851742 23216,6917.844,95.437,541.234,538.185,0.0
